NORAD_CAT_ID,OBJECT_NAME,OBJECT_TYPE,EPOCH,MEAN_MOTION,ECCENTRICITY,INCLINATION,RA_OF_ASC_NODE,ARG_OF_PERICENTER,MEAN_ANOMALY,BSTAR,MEAN_MOTION_DOT,MEAN_MOTION_DDOT,TLE_LINE0,TLE_LINE1,TLE_LINE2,SEMIMAJOR_AXIS,PERIOD,APOGEE,PERIGEE,DECAYED
53918.0,STARLINK-5012,PAYLOAD,2023-10-08 02:18:57,15.0884142,0.0002201,53.217,320.6298,89.8057,270.3187,7.3119e-05,8.76e-06,0.0,0 STARLINK-5012,1 53918U 22119AJ  23281.09649862  .00000876  00000-0  73119-4 0  9997,2 53918  53.2170 320.6298 0002201  89.8057 270.3187 15.08841420 58013,6917.876,95.437,541.264,538.218,0.0
53918.0,STARLINK-5012,PAYLOAD,2023-10-08 10:15:53,15.08845405,0.0001606,53.2174,319.1427,90.8045,269.3131,0.0001471,2.054e-05,0.0,0 STARLINK-5012,1 53918U 22119AJ  23281.42769862  .00002054  00000-0  14710-3 0  9998,2 53918  53.2174 319.1427 0001606  90.8045 269.3131 15.08845405 58486,6917.864,95.437,540.84,538.618,0.0
53918.0,STARLINK-5012,PAYLOAD,2023-10-08 19:48:12,15.08842976,0.0001654,53.2175,317.3577,90.35,269.7681,9.1135e-05,1.163e-05,0.0,0 STARLINK-5012,1 53918U 22119AJ  23281.82514009  .00001163  00000-0  91135-4 0  9990,2 53918  53.2175 317.3577 0001654  90.3500 269.7681 15.08842976 58548,6917.871,95.437,540.881,538.592,0.0
53918.0,STARLINK-5012,PAYLOAD,2023-10-09 02:09:44,15.08841836,0.0001681,53.2173,316.169,88.5067,271.6118,0.00016509,2.34e-05,0.0,0 STARLINK-5012,1 53918U 22119AJ  23282.09010170  .00002340  00000-0  16509-3 0  9999,2 53918  53.2173 316.1690 0001681  88.5067 271.6118 15.08841836 58165,6917.875,95.437,540.903,538.577,0.0
53918.0,STARLINK-5012,PAYLOAD,2023-10-09 10:06:39,15.08856497,0.0001635,53.2175,314.6814,96.6067,263.5111,0.00015999,2.26e-05,0.0,0 STARLINK-5012,1 53918U 22119AJ  23282.42129347  .00002260  00000-0  15999-3 0  9996,2 53918  53.2175 314.6814 0001635  96.6067 263.5111 15.08856497 58631,6917.83,95.437,540.826,538.564,0.0
53918.0,STARLINK-5012,PAYLOAD,2023-10-10 02:00:31,15.08843945,0.0002155,53.2173,311.7097,86.2724,273.8515,0.00014381,2.001e-05,0.0,0 STARLINK-5012,1 53918U 22119AJ  23283.08370187  .00002001  00000-0  14381-3 0  9996,2 53918  53.2173 311.7097 0002155  86.2724 273.8515 15.08843945 58314,6917.868,95.437,541.224,538.243,0.0
53918.0,STARLINK-5012,PAYLOAD,2023-10-10 08:22:04,15.08846547,0.0001811,53.217,310.518,98.3154,261.8043,0.00020196,2.928e-05,0.0,0 STARLINK-5012,1 53918U 22119AJ  23283.34865903  .00002928  00000-0  20196-3 0  9999,2 53918  53.2170 310.5180 0001811  98.3154 261.8043 15.08846547 58774,6917.86,95.437,540.978,538.473,0.0
53918.0,STARLINK-5012,PAYLOAD,2023-10-10 19:29:46,15.08839544,0.000174,53.2169,308.437,89.946,270.1732,6.4468e-05,7.38e-06,0.0,0 STARLINK-5012,1 53918U 22119AJ  23283.81234294  .00000738  00000-0  64468-4 0  9992,2 53918  53.2169 308.4370 0001740  89.9460 270.1732 15.08839544 58841,6917.882,95.438,540.95,538.543,0.0
53918.0,STARLINK-5012,PAYLOAD,2023-10-11 01:51:19,15.08838287,0.0001989,53.2176,307.248,94.0293,266.0927,4.5983e-05,4.44e-06,0.0,0 STARLINK-5012,1 53918U 22119AJ  23284.07730724  .00000444  00000-0  45983-4 0  9995,2 53918  53.2176 307.2480 0001989  94.0293 266.0927 15.08838287 58465,6917.886,95.438,541.127,538.375,0.0
53918.0,STARLINK-5012,PAYLOAD,2023-10-11 08:12:51,15.08836159,0.000186,53.2172,306.0582,89.2041,270.9165,2.336e-05,8.4e-07,0.0,0 STARLINK-5012,1 53918U 22119AJ  23284.34226710  .00000084  00000-0  23360-4 0  9995,2 53918  53.2172 306.0582 0001860  89.2041 270.9165 15.08836159 58921,6917.892,95.438,541.044,538.47,0.0
53918.0,STARLINK-5012,PAYLOAD,2023-10-12 04:52:52,15.088441,0.0001896,53.2175,302.193,95.9504,264.1704,0.00019763,2.859e-05,0.0,0 STARLINK-5012,1 53918U 22119AJ  23285.20338611  .00002859  00000-0  19763-3 0  9998,2 53918  53.2175 302.1930 0001896  95.9504 264.1704 15.08844100 58632,6917.868,95.437,541.044,538.421,0.0
53918.0,STARLINK-5012,PAYLOAD,2023-10-12 08:03:38,15.08848001,0.0001829,53.2169,301.5976,92.6343,267.4858,0.00033805,5.097e-05,0.0,0 STARLINK-5012,1 53918U 22119AJ  23285.33586517  .00005097  00000-0  33805-3 0  9992,2 53918  53.2169 301.5976 0001829  92.6343 267.4858 15.08848001 59078,6917.856,95.437,540.986,538.456,0.0
53918.0,STARLINK-5012,PAYLOAD,2023-10-12 17:35:57,15.0884268,0.0001679,53.2163,299.8129,90.5661,269.5524,0.00019969,2.892e-05,0.0,0 STARLINK-5012,1 53918U 22119AJ  23285.73330688  .00002892  00000-0  19969-3 0  9997,2 53918  53.2163 299.8129 0001679  90.5661 269.5524 15.08842680 59131,6917.872,95.437,540.899,538.576,0.0
53918.0,STARLINK-5012,PAYLOAD,2023-10-13 04:43:39,15.08837346,0.0001752,53.2176,297.7339,88.741,271.3783,0.00021754,3.176e-05,0.0,0 STARLINK-5012,1 53918U 22119AJ  23286.19698982  .00003176  00000-0  21754-3 0  9993,2 53918  53.2176 297.7339 0001752  88.7410 271.3783 15.08837346 58789,6917.889,95.438,540.966,538.541,0.0
53918.0,STARLINK-5012,PAYLOAD,2023-10-13 07:54:25,15.08846098,0.0001755,53.2168,297.1363,96.3636,263.7556,0.00025607,3.79e-05,0.0,0 STARLINK-5012,1 53918U 22119AJ  23286.32946479  .00003790  00000-0  25607-3 0  9998,2 53918  53.2168 297.1363 0001755  96.3636 263.7556 15.08846098 58809,6917.862,95.437,540.941,538.513,0.0
53918.0,STARLINK-5012,PAYLOAD,2023-10-14 04:34:26,15.08844645,0.0001922,53.2169,293.2717,100.887,259.2339,8.5011e-05,1.065e-05,0.0,0 STARLINK-5012,1 53918U 22119AJ  23287.19058456  .00001065  00000-0  85011-4 0  9992,2 53918  53.2169 293.2717 0001922 100.8870 259.2339 15.08844645 58936,6917.866,95.437,541.061,538.402,0.0
53918.0,STARLINK-5012,PAYLOAD,2023-10-14 07:45:12,15.08847471,0.0001912,53.2172,292.6775,99.2484,260.8725,0.0001237,1.681e-05,0.0,0 STARLINK-5012,1 53918U 22119AJ  23287.32306313  .00001681  00000-0  12370-3 0  9996,2 53918  53.2172 292.6775 0001912  99.2484 260.8725 15.08847471 59374,6917.858,95.437,541.045,538.4,0.0
53918.0,STARLINK-5012,PAYLOAD,2023-10-14 23:39:04,15.08828893,0.0001517,53.2171,289.7033,97.4069,262.7095,-9.9083e-05,-1.864e-05,0.0,0 STARLINK-5012,1 53918U 22119AJ  23287.98547333 -.00001864  00000-0 -99083-4 0  9999,2 53918  53.2171 289.7033 0001517  97.4069 262.7095 15.08828893 59050,6917.914,95.438,540.829,538.73,0.0
53918.0,STARLINK-5012,PAYLOAD,2023-10-15 09:11:24,15.0882739,0.0001537,53.216,287.917,91.269,268.8478,-0.00011568,-2.128e-05,0.0,0 STARLINK-5012,1 53918U 22119AJ  23288.38291809 -.00002128  00000-0 -11568-3 0  9993,2 53918  53.2160 287.9170 0001537  91.2690 268.8478 15.08827390 59530,6917.919,95.438,540.847,538.721,0.0
53918.0,STARLINK-5012,PAYLOAD,2023-10-15 17:08:19,15.08835858,0.0001457,53.2162,286.4299,95.086,265.0299,0.00010046,1.311e-05,0.0,0 STARLINK-5012,1 53918U 22119AJ  23288.71411644  .00001311  00000-0  10046-3 0  9992,2 53918  53.2162 286.4299 0001457  95.0860 265.0299 15.08835858 59583,6917.893,95.438,540.766,538.75,0.0
53918.0,STARLINK-5012,PAYLOAD,2023-10-16 04:16:01,15.0884672,0.0001482,53.2159,284.3473,96.8103,263.3058,0.00035792,5.414e-05,0.0,0 STARLINK-5012,1 53918U 22119AJ  23289.17779340  .00005414  00000-0  35792-3 0  9996,2 53918  53.2159 284.3473 0001482  96.8103 263.3058 15.08846720 59233,6917.86,95.437,540.75,538.7,0.0
53918.0,STARLINK-5012,PAYLOAD,2023-10-16 09:02:10,15.0885942,0.0001475,53.2154,283.4564,96.2749,263.8411,0.0010248,0.00016068,0.0,0 STARLINK-5012,1 53918U 22119AJ  23289.37651327  .00016068  00000-0  10248-2 0  9997,2 53918  53.2154 283.4564 0001475  96.2749 263.8411 15.08859420 59689,6917.821,95.436,540.706,538.666,0.0
53918.0,STARLINK-5012,PAYLOAD,2023-10-17 16:49:53,15.08855408,0.0001229,53.216,277.5083,99.1678,260.9453,0.00043059,6.574e-05,0.0,0 STARLINK-5012,1 53918U 22119AJ  23290.70130967  .00006574  00000-0  43059-3 0  9996,2 53918  53.2160 277.5083 0001229  99.1678 260.9453 15.08855408 59468,6917.833,95.437,540.548,538.848,0.0
53918.0,STARLINK-5012,PAYLOAD,2023-10-17 23:11:25,15.08846765,0.0001715,53.2163,276.3189,100.2486,259.87,0.00023909,3.52e-05,0.0,0 STARLINK-5012,1 53918U 22119AJ  23290.96627199  .00003520  00000-0  23909-3 0  9992,2 53918  53.2163 276.3189 0001715 100.2486 259.8700 15.08846765 59509,6917.86,95.437,540.911,538.538,0.0
53918.0,STARLINK-5012,PAYLOAD,2023-10-18 23:02:12,15.08849341,0.000116,53.2182,271.8604,92.059,268.0535,0.00019287,2.784e-05,0.0,0 STARLINK-5012,1 53918U 22119AJ  23291.95987053  .00002784  00000-0  19287-3 0  9995,2 53918  53.2182 271.8604 0001160  92.0590 268.0535 15.08849341 60075,6917.852,95.437,540.519,538.914,0.0
53918.0,STARLINK-5012,PAYLOAD,2023-10-19 03:48:22,15.08849681,0.0001677,53.2176,270.9668,100.1665,259.9517,0.00036303,5.496e-05,0.0,0 STARLINK-5012,1 53918U 22119AJ  23292.15859174  .00005496  00000-0  36303-3 0  9991,2 53918  53.2176 270.9668 0001677 100.1665 259.9517 15.08849681 59686,6917.851,95.437,540.876,538.556,0.0
53918.0,STARLINK-5012,PAYLOAD,2023-10-19 08:34:31,15.08856182,0.0001381,53.2165,270.0739,91.5135,268.6015,0.00049105,7.539e-05,0.0,0 STARLINK-5012,1 53918U 22119AJ  23292.35730914  .00007539  00000-0  49105-3 0  9997,2 53918  53.2165 270.0739 0001381  91.5135 268.6015 15.08856182 60137,6917.831,95.437,540.651,538.741,0.0
53918.0,STARLINK-5012,PAYLOAD,2023-10-19 22:53:00,15.08838592,0.0001392,53.216,267.399,87.8392,272.2759,0.00013215,1.816e-05,0.0,0 STARLINK-5012,1 53918U 22119AJ  23292.95347453  .00001816  00000-0  13215-3 0  9990,2 53918  53.2160 267.3990 0001392  87.8392 272.2759 15.08838592 60226,6917.885,95.438,540.713,538.787,0.0
53918.0,STARLINK-5012,PAYLOAD,2023-10-20 02:03:46,15.08840617,0.0001455,53.2163,266.8043,94.8267,265.2891,0.0001467,2.048e-05,0.0,0 STARLINK-5012,1 53918U 22119AJ  23293.08595436  .00002048  00000-0  14670-3 0  9995,2 53918  53.2163 266.8043 0001455  94.8267 265.2891 15.08840617 59825,6917.879,95.438,540.75,538.737,0.0
53918.0,STARLINK-5012,PAYLOAD,2023-10-20 08:25:18,15.08844136,0.0001597,53.2177,265.6134,93.1794,266.9381,0.00017242,2.457e-05,0.0,0 STARLINK-5012,1 53918U 22119AJ  23293.35091402  .00002457  00000-0  17242-3 0  9991,2 53918  53.2177 265.6134 0001597  93.1794 266.9381 15.08844136 60286,6917.868,95.437,540.838,538.628,0.0
